GLOBALSTAR M019         
1 25677U 99019B   24302.90737080  .00000068  00000+0  16489-2 0  9993
2 25677  51.9908 358.5518 0001082 191.7126 339.5608 12.13866821157054
GLOBALSTAR M042         
1 25679U 99019D   24302.86855634 -.00000002  00000+0  85087-3 0  9996
2 25679  52.0039 343.9679 0002961 174.9456 355.8018 12.22071833156972
GLOBALSTAR M025         
1 25770U 99031A   24302.81523564 -.00000025  00000+0  12984-2 0  9991
2 25770  51.9844 335.2620 0001648 115.9050  55.0849 11.22555213455726
GLOBALSTAR M049         
1 25771U 99031B   24302.63340448 -.00000059  00000+0  20815-3 0  9990
2 25771  51.9915 358.8080 0002911 354.0006   6.0755 11.12112090 91660
GLOBALSTAR M047         
1 25772U 99031C   24302.60637554 -.00000065  00000+0  12100-3 0  9990
2 25772  51.9874  17.9623 0016285 223.5769 136.3751 11.31924246444880
GLOBALSTAR M052         
1 25773U 99031D   24302.75381628 -.00000035  00000+0  10476-2 0  9995
2 25773  51.9833 110.4626 0003351 131.8860 241.0849 11.15055014452691
